LEMUR-2-ARIANNA         
1 62699U 25009CU  26073.47418165  .00010035  00000+0  79051-3 0  9995
2 62699  97.6986 155.7347 0004842 138.0525 222.1071 15.00974691 63346
LEMUR-2-ALISIA          
1 62706U 25009DB  26073.47022484  .00009535  00000+0  74608-3 0  9995
2 62706  97.7025 156.3912 0006669 149.8039 210.3570 15.01238526 85948
LEMUR-2-ROUNDTRIPPER    
1 62711U 25009DG  26073.49098293  .00011012  00000+0  83988-3 0  9998
2 62711  97.7296 156.4188 0005744 108.5836 251.6013 15.02181400 63406
LEMUR-2-MYNAMEISJEFF    
1 62712U 25009DH  26073.62275980  .00014396  00000+0  10958-2 0  9998
2 62712  97.7343 156.8748 0004897 130.7018 229.4633 15.02191347 63427
LEMUR-2-LEIA-PHILIP     
1 63246U 25052AN  26073.62939616  .00008243  00000+0  72631-3 0  9993
2 63246  97.6942 327.1440 0003891 164.9851 195.1487 14.96704024 54524
LEMUR-2-LIA-MARTIN      
1 63248U 25052AQ  26073.44968842  .00007414  00000+0  65092-3 0  9990
2 63248  97.7009 327.3343 0004438 125.0349 235.1289 14.96873391 54500
LEMUR-2-DELOITTE-1      
1 63259U 25052BB  26073.48535772  .00005040  00000+0  44471-3 0  9999
2 63259  97.7030 327.6855 0002581  70.4706 289.6794 14.96841079 54529
LEMUR-2-EMERSONROSE     
1 63261U 25052BD  26073.62051320  .00007926  00000+0  67068-3 0  9992
2 63261  97.7003 328.1867 0002061  34.8232 325.3125 14.98296708 54578
LEMUR-2-MARACHE-FRAN    
1 63262U 25052BE  26073.64875261  .00010202  00000+0  84638-3 0  9996
2 63262  97.6998 328.4122 0002403  46.0296 314.1124 14.98983883 54597
LEMUR-2-THEFALCONER     
1 63264U 25052BG  26073.63183525  .00007471  00000+0  66104-3 0  9994
2 63264  97.6968 327.5510 0001544   1.2843 358.8382 14.96576604 54546
LEMUR-2-UNTITLED-SC     
1 63351U 25061A   26073.52246082  .00006702  00000+0  38459-3 0  9995
2 63351  97.5559  49.6714 0017513 228.0079 131.9661 15.12753454 53277
LEMUR-2-ESPERANZA       
1 63352U 25061B   26073.57116544  .00005472  00000+0  31417-3 0  9990
2 63352  97.5563  49.7919 0017147 226.9802 132.9993 15.12821702 53287
LEMUR-2-KREMPEL-BRO2    
1 63353U 25061C   26072.89749827  .00005033  00000+0  28582-3 0  9993
2 63353  97.5609  49.5368 0018237 221.8530 138.1307 15.13238689 53192
LEMUR-2-THERMORAPTOR    
1 63354U 25061D   26073.41295073  .00005856  00000+0  33131-3 0  9991
2 63354  97.5616  50.1067 0018037 218.9392 141.0541 15.13305762 53275
LEMUR-2-NEUROSPICY      
1 63355U 25061E   26073.52397304  .00005774  00000+0  32595-3 0  9996
2 63355  97.5545  49.9171 0015705 221.7282 138.2753 15.13424120 53293
LEMUR-2-TILLINFINITY    
1 63356U 25061F   26073.46357141  .00005436  00000+0  30203-3 0  9994
2 63356  97.5531  50.0815 0017220 209.5617 150.4642 15.13998797 53308
