[{"OBJECT_NAME":"LEMUR-2-ARIANNA","OBJECT_ID":"2025-009CU","EPOCH":"2026-03-14T11:22:49.294560","MEAN_MOTION":15.00974691,"ECCENTRICITY":0.00048428,"INCLINATION":97.6986,"RA_OF_ASC_NODE":155.7347,"ARG_OF_PERICENTER":138.0525,"MEAN_ANOMALY":222.1071,"EPHEMERIS_TYPE":0,"CLASSIFICATION_TYPE":"U","NORAD_CAT_ID":62699,"ELEMENT_SET_NO":999,"REV_AT_EPOCH":6334,"BSTAR":0.00079050635,"MEAN_MOTION_DOT":0.00010035,"MEAN_MOTION_DDOT":0},{"OBJECT_NAME":"LEMUR-2-ALISIA","OBJECT_ID":"2025-009DB","EPOCH":"2026-03-14T11:17:07.426176","MEAN_MOTION":15.01238526,"ECCENTRICITY":0.00066697,"INCLINATION":97.7025,"RA_OF_ASC_NODE":156.3912,"ARG_OF_PERICENTER":149.8039,"MEAN_ANOMALY":210.357,"EPHEMERIS_TYPE":0,"CLASSIFICATION_TYPE":"U","NORAD_CAT_ID":62706,"ELEMENT_SET_NO":999,"REV_AT_EPOCH":8594,"BSTAR":0.00074607683,"MEAN_MOTION_DOT":9.535e-5,"MEAN_MOTION_DDOT":0},{"OBJECT_NAME":"LEMUR-2-ROUNDTRIPPER","OBJECT_ID":"2025-009DG","EPOCH":"2026-03-14T11:47:00.925152","MEAN_MOTION":15.021814,"ECCENTRICITY":0.00057449,"INCLINATION":97.7296,"RA_OF_ASC_NODE":156.4188,"ARG_OF_PERICENTER":108.5836,"MEAN_ANOMALY":251.6013,"EPHEMERIS_TYPE":0,"CLASSIFICATION_TYPE":"U","NORAD_CAT_ID":62711,"ELEMENT_SET_NO":999,"REV_AT_EPOCH":6340,"BSTAR":0.0008398796,"MEAN_MOTION_DOT":0.00011012,"MEAN_MOTION_DDOT":0},{"OBJECT_NAME":"LEMUR-2-MYNAMEISJEFF","OBJECT_ID":"2025-009DH","EPOCH":"2026-03-14T14:56:46.446720","MEAN_MOTION":15.02191347,"ECCENTRICITY":0.00048979,"INCLINATION":97.7343,"RA_OF_ASC_NODE":156.8748,"ARG_OF_PERICENTER":130.7018,"MEAN_ANOMALY":229.4633,"EPHEMERIS_TYPE":0,"CLASSIFICATION_TYPE":"U","NORAD_CAT_ID":62712,"ELEMENT_SET_NO":999,"REV_AT_EPOCH":6342,"BSTAR":0.0010958208,"MEAN_MOTION_DOT":0.00014396,"MEAN_MOTION_DDOT":0},{"OBJECT_NAME":"LEMUR-2-LEIA-PHILIP","OBJECT_ID":"2025-052AN","EPOCH":"2026-03-14T15:06:19.828224","MEAN_MOTION":14.96704024,"ECCENTRICITY":0.00038915,"INCLINATION":97.6942,"RA_OF_ASC_NODE":327.144,"ARG_OF_PERICENTER":164.9851,"MEAN_ANOMALY":195.1487,"EPHEMERIS_TYPE":0,"CLASSIFICATION_TYPE":"U","NORAD_CAT_ID":63246,"ELEMENT_SET_NO":999,"REV_AT_EPOCH":5452,"BSTAR":0.00072630659,"MEAN_MOTION_DOT":8.243e-5,"MEAN_MOTION_DDOT":0},{"OBJECT_NAME":"LEMUR-2-LIA-MARTIN","OBJECT_ID":"2025-052AQ","EPOCH":"2026-03-14T10:47:33.079488","MEAN_MOTION":14.96873391,"ECCENTRICITY":0.00044385,"INCLINATION":97.7009,"RA_OF_ASC_NODE":327.3343,"ARG_OF_PERICENTER":125.0349,"MEAN_ANOMALY":235.1289,"EPHEMERIS_TYPE":0,"CLASSIFICATION_TYPE":"U","NORAD_CAT_ID":63248,"ELEMENT_SET_NO":999,"REV_AT_EPOCH":5450,"BSTAR":0.00065092147,"MEAN_MOTION_DOT":7.414e-5,"MEAN_MOTION_DDOT":0},{"OBJECT_NAME":"LEMUR-2-DELOITTE-1","OBJECT_ID":"2025-052BB","EPOCH":"2026-03-14T11:38:54.907008","MEAN_MOTION":14.96841079,"ECCENTRICITY":0.00025811,"INCLINATION":97.703,"RA_OF_ASC_NODE":327.6855,"ARG_OF_PERICENTER":70.4706,"MEAN_ANOMALY":289.6794,"EPHEMERIS_TYPE":0,"CLASSIFICATION_TYPE":"U","NORAD_CAT_ID":63259,"ELEMENT_SET_NO":999,"REV_AT_EPOCH":5452,"BSTAR":0.00044470558,"MEAN_MOTION_DOT":5.04e-5,"MEAN_MOTION_DDOT":0},{"OBJECT_NAME":"LEMUR-2-EMERSONROSE","OBJECT_ID":"2025-052BD","EPOCH":"2026-03-14T14:53:32.340480","MEAN_MOTION":14.98296708,"ECCENTRICITY":0.00020617,"INCLINATION":97.7003,"RA_OF_ASC_NODE":328.1867,"ARG_OF_PERICENTER":34.8232,"MEAN_ANOMALY":325.3125,"EPHEMERIS_TYPE":0,"CLASSIFICATION_TYPE":"U","NORAD_CAT_ID":63261,"ELEMENT_SET_NO":999,"REV_AT_EPOCH":5457,"BSTAR":0.00067067789,"MEAN_MOTION_DOT":7.926e-5,"MEAN_MOTION_DDOT":0},{"OBJECT_NAME":"LEMUR-2-MARACHE-FRAN","OBJECT_ID":"2025-052BE","EPOCH":"2026-03-14T15:34:12.225504","MEAN_MOTION":14.98983883,"ECCENTRICITY":0.00024037,"INCLINATION":97.6998,"RA_OF_ASC_NODE":328.4122,"ARG_OF_PERICENTER":46.0296,"MEAN_ANOMALY":314.1124,"EPHEMERIS_TYPE":0,"CLASSIFICATION_TYPE":"U","NORAD_CAT_ID":63262,"ELEMENT_SET_NO":999,"REV_AT_EPOCH":5459,"BSTAR":0.00084638496,"MEAN_MOTION_DOT":0.00010202,"MEAN_MOTION_DDOT":0},{"OBJECT_NAME":"LEMUR-2-THEFALCONER","OBJECT_ID":"2025-052BG","EPOCH":"2026-03-14T15:09:50.565600","MEAN_MOTION":14.96576604,"ECCENTRICITY":0.00015443,"INCLINATION":97.6968,"RA_OF_ASC_NODE":327.551,"ARG_OF_PERICENTER":1.2843,"MEAN_ANOMALY":358.8382,"EPHEMERIS_TYPE":0,"CLASSIFICATION_TYPE":"U","NORAD_CAT_ID":63264,"ELEMENT_SET_NO":999,"REV_AT_EPOCH":5454,"BSTAR":0.00066103825,"MEAN_MOTION_DOT":7.471e-5,"MEAN_MOTION_DDOT":0},{"OBJECT_NAME":"LEMUR-2-UNTITLED-SC","OBJECT_ID":"2025-061A","EPOCH":"2026-03-14T12:32:20.614848","MEAN_MOTION":15.12753454,"ECCENTRICITY":0.00175132,"INCLINATION":97.5559,"RA_OF_ASC_NODE":49.6714,"ARG_OF_PERICENTER":228.0079,"MEAN_ANOMALY":131.9661,"EPHEMERIS_TYPE":0,"CLASSIFICATION_TYPE":"U","NORAD_CAT_ID":63351,"ELEMENT_SET_NO":999,"REV_AT_EPOCH":5327,"BSTAR":0.0003845867,"MEAN_MOTION_DOT":6.702e-5,"MEAN_MOTION_DDOT":0},{"OBJECT_NAME":"LEMUR-2-ESPERANZA","OBJECT_ID":"2025-061B","EPOCH":"2026-03-14T13:42:28.694016","MEAN_MOTION":15.12821702,"ECCENTRICITY":0.00171478,"INCLINATION":97.5563,"RA_OF_ASC_NODE":49.7919,"ARG_OF_PERICENTER":226.9802,"MEAN_ANOMALY":132.9993,"EPHEMERIS_TYPE":0,"CLASSIFICATION_TYPE":"U","NORAD_CAT_ID":63352,"ELEMENT_SET_NO":999,"REV_AT_EPOCH":5328,"BSTAR":0.00031417498,"MEAN_MOTION_DOT":5.472e-5,"MEAN_MOTION_DDOT":0},{"OBJECT_NAME":"LEMUR-2-KREMPEL-BRO2","OBJECT_ID":"2025-061C","EPOCH":"2026-03-13T21:32:23.850528","MEAN_MOTION":15.13238689,"ECCENTRICITY":0.00182376,"INCLINATION":97.5609,"RA_OF_ASC_NODE":49.5368,"ARG_OF_PERICENTER":221.853,"MEAN_ANOMALY":138.1307,"EPHEMERIS_TYPE":0,"CLASSIFICATION_TYPE":"U","NORAD_CAT_ID":63353,"ELEMENT_SET_NO":999,"REV_AT_EPOCH":5319,"BSTAR":0.00028581725,"MEAN_MOTION_DOT":5.033e-5,"MEAN_MOTION_DDOT":0},{"OBJECT_NAME":"LEMUR-2-THERMORAPTOR","OBJECT_ID":"2025-061D","EPOCH":"2026-03-14T09:54:38.943072","MEAN_MOTION":15.13305762,"ECCENTRICITY":0.00180375,"INCLINATION":97.5616,"RA_OF_ASC_NODE":50.1067,"ARG_OF_PERICENTER":218.9392,"MEAN_ANOMALY":141.0541,"EPHEMERIS_TYPE":0,"CLASSIFICATION_TYPE":"U","NORAD_CAT_ID":63354,"ELEMENT_SET_NO":999,"REV_AT_EPOCH":5327,"BSTAR":0.00033130948,"MEAN_MOTION_DOT":5.856e-5,"MEAN_MOTION_DDOT":0},{"OBJECT_NAME":"LEMUR-2-NEUROSPICY","OBJECT_ID":"2025-061E","EPOCH":"2026-03-14T12:34:31.270656","MEAN_MOTION":15.1342412,"ECCENTRICITY":0.00157056,"INCLINATION":97.5545,"RA_OF_ASC_NODE":49.9171,"ARG_OF_PERICENTER":221.7282,"MEAN_ANOMALY":138.2753,"EPHEMERIS_TYPE":0,"CLASSIFICATION_TYPE":"U","NORAD_CAT_ID":63355,"ELEMENT_SET_NO":999,"REV_AT_EPOCH":5329,"BSTAR":0.00032594885,"MEAN_MOTION_DOT":5.774e-5,"MEAN_MOTION_DDOT":0},{"OBJECT_NAME":"LEMUR-2-TILLINFINITY","OBJECT_ID":"2025-061F","EPOCH":"2026-03-14T11:07:32.569824","MEAN_MOTION":15.13998797,"ECCENTRICITY":0.00172208,"INCLINATION":97.5531,"RA_OF_ASC_NODE":50.0815,"ARG_OF_PERICENTER":209.5617,"MEAN_ANOMALY":150.4642,"EPHEMERIS_TYPE":0,"CLASSIFICATION_TYPE":"U","NORAD_CAT_ID":63356,"ELEMENT_SET_NO":999,"REV_AT_EPOCH":5330,"BSTAR":0.00030203134,"MEAN_MOTION_DOT":5.436e-5,"MEAN_MOTION_DDOT":0}]
